STARLINK-30182          
1 57412U 23102J   26077.83335647  .00115191  00000+0  43149-2 0  9998
2 57412  43.0003 196.6978 0001726 263.6131   8.0187 15.26139917  5716
STARLINK-30191          
1 57413U 23102K   26077.88263368  .00013331  00000+0  49401-3 0  9995
2 57413  43.0039 134.7298 0000805 265.8964  94.1795 15.27518051148371
STARLINK-30193          
1 57414U 23102L   26077.83335647  .00226488  00000+0  11603-1 0  9991
2 57414  43.0030 197.7000 0001678 292.6885 270.4270 15.14851449  5727
STARLINK-30208          
1 57415U 23102M   26077.83335647  .00045186  00000+0  16845-2 0  9990
2 57415  43.0000 196.5162 0001106 287.5532  59.5732 15.26728597  5773
STARLINK-30224          
1 57416U 23102N   26077.83335647  .00088415  00000+0  35711-2 0  9996
2 57416  43.0001 196.7780 0001493 293.6817 302.1356 15.23769977  5678
STARLINK-30043          
1 57417U 23102P   26077.83335647  .00050025  00000+0  18641-2 0  9996
2 57417  43.0081 196.6716 0001418 286.8945 353.3048 15.26702368  5779
STARLINK-30221          
1 57418U 23102Q   26077.83335647  .00078513  00000+0  45173-2 0  9999
2 57418  43.0005 198.2864 0002783 298.4252  17.7774 15.11513843  5672
STARLINK-30189          
1 57430U 23105A   26077.83335647  .00672822  00000+0  76024-2 0  9998
2 57430  43.0003 184.0153 0001412 289.4304  46.3985 15.59449192  5820
STARLINK-30188          
1 57432U 23105C   26077.83335647  .00094316  00000+0  47118-2 0  9998
2 57432  42.9998 210.5858 0001888 291.8325  22.7332 15.16438692  5760
STARLINK-30105          
1 57433U 23105D   26077.76629517 -.00000639  00000+0 -13712-4 0  9995
2 57433  43.0087 339.5721 0000980 258.5975 101.4766 15.27582872149718
STARLINK-30102          
1 57434U 23105E   26077.66367223  .00526145  00000+0  17692-1 0  9999
2 57434  43.0004 209.2202 0001015 305.3230  54.7526 15.28143862146905
STARLINK-30237          
1 57437U 23105H   26077.83335647  .00506996  00000+0  42487-2 0  9999
2 57437  42.9946 179.6973 0019656  28.8143 290.2207 15.67413764  5840
STARLINK-30158          
1 57438U 23105J   26077.79671792  .00003320  00000+0  13010-3 0  9993
2 57438  43.0015 208.4988 0001112 271.5360  88.5364 15.27583493146978
STARLINK-30160          
1 57441U 23105M   26077.83335647  .00089725  00000+0  54389-2 0  9994
2 57441  43.0006 211.5518 0001413 258.2474   3.7329 15.09556437  5778
STARLINK-30146          
1 57442U 23105N   26077.79848669  .00001462  00000+0  64167-4 0  9992
2 57442  43.0011 208.5088 0001678 274.8180  85.2479 15.26745291147038
STARLINK-30197          
1 57443U 23105P   26077.71218786  .00001207  00000+0  54689-4 0  9991
2 57443  43.0013 208.7267 0001237 271.4420  88.6289 15.26740664146969
STARLINK-30181          
1 57444U 23105Q   26077.83335647  .00095047  00000+0  47352-2 0  9993
2 57444  43.0003 210.7629 0001162 303.4339 292.8114 15.16531527  5613
