[{"OBJECT_NAME":"STARLINK-30182","OBJECT_ID":"2023-102J","EPOCH":"2026-03-18T20:00:01.999008","MEAN_MOTION":15.26139917,"ECCENTRICITY":0.0001726,"INCLINATION":43.0003,"RA_OF_ASC_NODE":196.6978,"ARG_OF_PERICENTER":263.6131,"MEAN_ANOMALY":8.0187,"EPHEMERIS_TYPE":0,"CLASSIFICATION_TYPE":"U","NORAD_CAT_ID":57412,"ELEMENT_SET_NO":999,"REV_AT_EPOCH":571,"BSTAR":0.0043149,"MEAN_MOTION_DOT":0.00115191,"MEAN_MOTION_DDOT":0},{"OBJECT_NAME":"STARLINK-30191","OBJECT_ID":"2023-102K","EPOCH":"2026-03-18T21:10:59.549952","MEAN_MOTION":15.27518051,"ECCENTRICITY":8.05e-5,"INCLINATION":43.0039,"RA_OF_ASC_NODE":134.7298,"ARG_OF_PERICENTER":265.8964,"MEAN_ANOMALY":94.1795,"EPHEMERIS_TYPE":0,"CLASSIFICATION_TYPE":"U","NORAD_CAT_ID":57413,"ELEMENT_SET_NO":999,"REV_AT_EPOCH":14837,"BSTAR":0.00049401,"MEAN_MOTION_DOT":0.00013331,"MEAN_MOTION_DDOT":0},{"OBJECT_NAME":"STARLINK-30193","OBJECT_ID":"2023-102L","EPOCH":"2026-03-18T20:00:01.999008","MEAN_MOTION":15.14851449,"ECCENTRICITY":0.0001678,"INCLINATION":43.003,"RA_OF_ASC_NODE":197.7,"ARG_OF_PERICENTER":292.6885,"MEAN_ANOMALY":270.427,"EPHEMERIS_TYPE":0,"CLASSIFICATION_TYPE":"U","NORAD_CAT_ID":57414,"ELEMENT_SET_NO":999,"REV_AT_EPOCH":572,"BSTAR":0.011603,"MEAN_MOTION_DOT":0.00226488,"MEAN_MOTION_DDOT":0},{"OBJECT_NAME":"STARLINK-30208","OBJECT_ID":"2023-102M","EPOCH":"2026-03-18T20:00:01.999008","MEAN_MOTION":15.26728597,"ECCENTRICITY":0.0001106,"INCLINATION":43,"RA_OF_ASC_NODE":196.5162,"ARG_OF_PERICENTER":287.5532,"MEAN_ANOMALY":59.5732,"EPHEMERIS_TYPE":0,"CLASSIFICATION_TYPE":"U","NORAD_CAT_ID":57415,"ELEMENT_SET_NO":999,"REV_AT_EPOCH":577,"BSTAR":0.0016845,"MEAN_MOTION_DOT":0.00045186,"MEAN_MOTION_DDOT":0},{"OBJECT_NAME":"STARLINK-30224","OBJECT_ID":"2023-102N","EPOCH":"2026-03-18T20:00:01.999008","MEAN_MOTION":15.23769977,"ECCENTRICITY":0.0001493,"INCLINATION":43.0001,"RA_OF_ASC_NODE":196.778,"ARG_OF_PERICENTER":293.6817,"MEAN_ANOMALY":302.1356,"EPHEMERIS_TYPE":0,"CLASSIFICATION_TYPE":"U","NORAD_CAT_ID":57416,"ELEMENT_SET_NO":999,"REV_AT_EPOCH":567,"BSTAR":0.0035711,"MEAN_MOTION_DOT":0.00088415,"MEAN_MOTION_DDOT":0},{"OBJECT_NAME":"STARLINK-30043","OBJECT_ID":"2023-102P","EPOCH":"2026-03-18T20:00:01.999008","MEAN_MOTION":15.26702368,"ECCENTRICITY":0.0001418,"INCLINATION":43.0081,"RA_OF_ASC_NODE":196.6716,"ARG_OF_PERICENTER":286.8945,"MEAN_ANOMALY":353.3048,"EPHEMERIS_TYPE":0,"CLASSIFICATION_TYPE":"U","NORAD_CAT_ID":57417,"ELEMENT_SET_NO":999,"REV_AT_EPOCH":577,"BSTAR":0.0018641,"MEAN_MOTION_DOT":0.00050025,"MEAN_MOTION_DDOT":0},{"OBJECT_NAME":"STARLINK-30221","OBJECT_ID":"2023-102Q","EPOCH":"2026-03-18T20:00:01.999008","MEAN_MOTION":15.11513843,"ECCENTRICITY":0.0002783,"INCLINATION":43.0005,"RA_OF_ASC_NODE":198.2864,"ARG_OF_PERICENTER":298.4252,"MEAN_ANOMALY":17.7774,"EPHEMERIS_TYPE":0,"CLASSIFICATION_TYPE":"U","NORAD_CAT_ID":57418,"ELEMENT_SET_NO":999,"REV_AT_EPOCH":567,"BSTAR":0.0045173,"MEAN_MOTION_DOT":0.00078513,"MEAN_MOTION_DDOT":0},{"OBJECT_NAME":"STARLINK-30189","OBJECT_ID":"2023-105A","EPOCH":"2026-03-18T20:00:01.999008","MEAN_MOTION":15.59449192,"ECCENTRICITY":0.0001412,"INCLINATION":43.0003,"RA_OF_ASC_NODE":184.0153,"ARG_OF_PERICENTER":289.4304,"MEAN_ANOMALY":46.3985,"EPHEMERIS_TYPE":0,"CLASSIFICATION_TYPE":"U","NORAD_CAT_ID":57430,"ELEMENT_SET_NO":999,"REV_AT_EPOCH":582,"BSTAR":0.0076024,"MEAN_MOTION_DOT":0.00672822,"MEAN_MOTION_DDOT":0},{"OBJECT_NAME":"STARLINK-30188","OBJECT_ID":"2023-105C","EPOCH":"2026-03-18T20:00:01.999008","MEAN_MOTION":15.16438692,"ECCENTRICITY":0.0001888,"INCLINATION":42.9998,"RA_OF_ASC_NODE":210.5858,"ARG_OF_PERICENTER":291.8325,"MEAN_ANOMALY":22.7332,"EPHEMERIS_TYPE":0,"CLASSIFICATION_TYPE":"U","NORAD_CAT_ID":57432,"ELEMENT_SET_NO":999,"REV_AT_EPOCH":576,"BSTAR":0.0047118,"MEAN_MOTION_DOT":0.00094316,"MEAN_MOTION_DDOT":0},{"OBJECT_NAME":"STARLINK-30105","OBJECT_ID":"2023-105D","EPOCH":"2026-03-18T18:23:27.902688","MEAN_MOTION":15.27582872,"ECCENTRICITY":9.8e-5,"INCLINATION":43.0087,"RA_OF_ASC_NODE":339.5721,"ARG_OF_PERICENTER":258.5975,"MEAN_ANOMALY":101.4766,"EPHEMERIS_TYPE":0,"CLASSIFICATION_TYPE":"U","NORAD_CAT_ID":57433,"ELEMENT_SET_NO":999,"REV_AT_EPOCH":14971,"BSTAR":-1.3712e-5,"MEAN_MOTION_DOT":-6.39e-6,"MEAN_MOTION_DDOT":0},{"OBJECT_NAME":"STARLINK-30102","OBJECT_ID":"2023-105E","EPOCH":"2026-03-18T15:55:41.280672","MEAN_MOTION":15.28143862,"ECCENTRICITY":0.0001015,"INCLINATION":43.0004,"RA_OF_ASC_NODE":209.2202,"ARG_OF_PERICENTER":305.323,"MEAN_ANOMALY":54.7526,"EPHEMERIS_TYPE":0,"CLASSIFICATION_TYPE":"U","NORAD_CAT_ID":57434,"ELEMENT_SET_NO":999,"REV_AT_EPOCH":14690,"BSTAR":0.017692,"MEAN_MOTION_DOT":0.00526145,"MEAN_MOTION_DDOT":0},{"OBJECT_NAME":"STARLINK-30237","OBJECT_ID":"2023-105H","EPOCH":"2026-03-18T20:00:01.999008","MEAN_MOTION":15.67413764,"ECCENTRICITY":0.0019656,"INCLINATION":42.9946,"RA_OF_ASC_NODE":179.6973,"ARG_OF_PERICENTER":28.8143,"MEAN_ANOMALY":290.2207,"EPHEMERIS_TYPE":0,"CLASSIFICATION_TYPE":"U","NORAD_CAT_ID":57437,"ELEMENT_SET_NO":999,"REV_AT_EPOCH":584,"BSTAR":0.0042487,"MEAN_MOTION_DOT":0.00506996,"MEAN_MOTION_DDOT":0},{"OBJECT_NAME":"STARLINK-30158","OBJECT_ID":"2023-105J","EPOCH":"2026-03-18T19:07:16.428288","MEAN_MOTION":15.27583493,"ECCENTRICITY":0.0001112,"INCLINATION":43.0015,"RA_OF_ASC_NODE":208.4988,"ARG_OF_PERICENTER":271.536,"MEAN_ANOMALY":88.5364,"EPHEMERIS_TYPE":0,"CLASSIFICATION_TYPE":"U","NORAD_CAT_ID":57438,"ELEMENT_SET_NO":999,"REV_AT_EPOCH":14697,"BSTAR":0.0001301,"MEAN_MOTION_DOT":3.32e-5,"MEAN_MOTION_DDOT":0},{"OBJECT_NAME":"STARLINK-30160","OBJECT_ID":"2023-105M","EPOCH":"2026-03-18T20:00:01.999008","MEAN_MOTION":15.09556437,"ECCENTRICITY":0.0001413,"INCLINATION":43.0006,"RA_OF_ASC_NODE":211.5518,"ARG_OF_PERICENTER":258.2474,"MEAN_ANOMALY":3.7329,"EPHEMERIS_TYPE":0,"CLASSIFICATION_TYPE":"U","NORAD_CAT_ID":57441,"ELEMENT_SET_NO":999,"REV_AT_EPOCH":577,"BSTAR":0.0054389,"MEAN_MOTION_DOT":0.00089725,"MEAN_MOTION_DDOT":0},{"OBJECT_NAME":"STARLINK-30146","OBJECT_ID":"2023-105N","EPOCH":"2026-03-18T19:09:49.250016","MEAN_MOTION":15.26745291,"ECCENTRICITY":0.0001678,"INCLINATION":43.0011,"RA_OF_ASC_NODE":208.5088,"ARG_OF_PERICENTER":274.818,"MEAN_ANOMALY":85.2479,"EPHEMERIS_TYPE":0,"CLASSIFICATION_TYPE":"U","NORAD_CAT_ID":57442,"ELEMENT_SET_NO":999,"REV_AT_EPOCH":14703,"BSTAR":6.4167e-5,"MEAN_MOTION_DOT":1.462e-5,"MEAN_MOTION_DDOT":0},{"OBJECT_NAME":"STARLINK-30197","OBJECT_ID":"2023-105P","EPOCH":"2026-03-18T17:05:33.031104","MEAN_MOTION":15.26740664,"ECCENTRICITY":0.0001237,"INCLINATION":43.0013,"RA_OF_ASC_NODE":208.7267,"ARG_OF_PERICENTER":271.442,"MEAN_ANOMALY":88.6289,"EPHEMERIS_TYPE":0,"CLASSIFICATION_TYPE":"U","NORAD_CAT_ID":57443,"ELEMENT_SET_NO":999,"REV_AT_EPOCH":14696,"BSTAR":5.4689e-5,"MEAN_MOTION_DOT":1.207e-5,"MEAN_MOTION_DDOT":0},{"OBJECT_NAME":"STARLINK-30181","OBJECT_ID":"2023-105Q","EPOCH":"2026-03-18T20:00:01.999008","MEAN_MOTION":15.16531527,"ECCENTRICITY":0.0001162,"INCLINATION":43.0003,"RA_OF_ASC_NODE":210.7629,"ARG_OF_PERICENTER":303.4339,"MEAN_ANOMALY":292.8114,"EPHEMERIS_TYPE":0,"CLASSIFICATION_TYPE":"U","NORAD_CAT_ID":57444,"ELEMENT_SET_NO":999,"REV_AT_EPOCH":561,"BSTAR":0.0047352,"MEAN_MOTION_DOT":0.00095047,"MEAN_MOTION_DDOT":0}]
